OBJECT_NAME,OBJECT_ID,EPOCH,MEAN_MOTION,ECCENTRICITY,INCLINATION,RA_OF_ASC_NODE,ARG_OF_PERICENTER,MEAN_ANOMALY,EPHEMERIS_TYPE,CLASSIFICATION_TYPE,NORAD_CAT_ID,ELEMENT_SET_NO,REV_AT_EPOCH,BSTAR,MEAN_MOTION_DOT,MEAN_MOTION_DDOT
FLOCK 4G-28,2025-009AB,2026-07-12T16:11:23.087328,15.35253890,.000188,97.4030,278.3258,167.8729,192.2559,0,U,62634,999,8299,.16558E-3,.5586E-4,0
GARAI-A,2025-009AC,2026-07-13T04:31:06.134016,15.18764359,.0001828,97.3973,273.4098,197.1556,162.9617,0,U,62635,999,8272,.15188E-3,.3089E-4,0
FLOCK 4G-24,2025-009AE,2026-07-13T04:04:38.312832,15.30341889,.0003514,97.4028,276.3584,170.9451,189.1854,0,U,62637,999,8290,.21199E-3,.6145E-4,0
FLOCK 4G-3,2025-009AG,2026-07-13T03:53:53.026656,15.29846759,.0003027,97.4028,276.0604,175.5584,184.5684,0,U,62639,999,8287,.22759E-3,.6502E-4,0
NUSAT-45 (UZMASAT-1),2025-009AH,2026-07-13T03:37:56.113824,15.30361115,.0001637,97.3596,275.1181,183.9331,176.1898,0,U,62640,999,8289,.20142E-3,.5838E-4,0
FLOCK 4G-27,2025-009AJ,2026-07-12T04:49:04.152864,15.29769551,.00022391,97.3939,274.4544,177.4853,182.6399,0,U,62641,999,8272,.18989929E-3,.5399E-4,0
FLOCK 4G-29,2025-009AK,2026-07-13T04:00:57.165984,15.29839451,.0003223,97.4025,276.0254,171.9398,188.1894,0,U,62642,999,8287,.19246E-3,.5485E-4,0
ANSER LEADER-S,2025-009AM,2026-07-12T20:00:15.988032,15.50039499,.0003986,97.4010,281.1010,197.8156,162.2956,0,U,62644,999,8317,.14142E-2,.7998E-3,0
FLOCK 4G-22,2025-009AN,2026-07-13T02:53:10.089888,15.29746788,.0002728,97.4013,276.0132,166.5553,193.5760,0,U,62645,999,8288,.24016E-3,.6845E-4,0
FLOCK 4G-25,2025-009AP,2026-07-13T03:50:00.123360,15.29985367,.0002253,97.4018,276.1302,166.6771,193.4529,0,U,62646,999,8289,.27254E-3,.7836E-4,0
FLOCK 4G-23,2025-009AQ,2026-07-12T18:00:40.258080,15.34642772,.0003094,97.3926,275.4335,177.8892,182.2364,0,U,62647,999,8284,.10152E-2,.34117E-3,0
LIME,2025-009AR,2026-07-13T04:03:55.926720,15.31402538,.0000901,97.3959,276.3738,184.8810,175.2423,0,U,62648,999,8294,.22312E-3,.6689E-4,0
AE1C,2025-009AS,2026-07-12T22:32:30.660000,15.47206942,.000246,97.4031,282.0753,180.8761,179.2485,0,U,62649,999,8326,.49085E-3,.24912E-3,0
FLOCK 4G-34,2025-009AT,2026-07-13T03:55:53.888160,15.29751359,.0002177,97.3967,275.6233,167.8874,192.2419,0,U,62650,999,8288,.23174E-3,.6603E-4,0
FLOCK 4G-21,2025-009AU,2026-07-12T18:15:13.197888,15.32763589,.0002952,97.3994,276.2129,197.3434,162.7708,0,U,62651,999,8287,.91122E-3,.28833E-3,0
FLOCK 4G-31,2025-009AV,2026-07-12T16:04:56.318592,15.29548421,.0001649,97.3971,275.1044,162.3844,197.7453,0,U,62652,999,8280,.22232E-3,.6291E-4,0
PAUSAT-1,2025-009AW,2026-07-13T04:26:08.047104,15.23754322,.0001255,97.3954,273.4644,158.8563,201.2726,0,U,62653,999,8274,.94654E-4,.2205E-4,0
BRO-16,2025-009AX,2026-07-12T16:26:49.600320,15.24117857,.0001901,97.4059,273.8571,158.7568,201.3749,0,U,62654,999,8268,.94809E-4,.2233E-4,0
TRANSPORTER-12 OBJECT AY,2025-009AY,2026-07-12T18:55:09.062112,15.42659612,.0002611,97.4039,280.5948,156.4135,203.7233,0,U,62655,999,8314,.48121E-3,.20911E-3,0
TRANSPORTER-12 OBJECT AZ,2025-009AZ,2026-07-12T17:18:18.571392,15.33621549,.0001134,97.3946,276.8157,163.3805,196.7475,0,U,62656,999,8293,.2596E-3,.836E-4,0
TRANSPORTER-12 OBJECT BA,2025-009BA,2026-07-12T18:02:21.763392,15.29399610,.0002405,97.3949,275.3133,148.2179,211.9207,0,U,62657,999,8283,.20506E-3,.577E-4,0
TROLL,2025-009BB,2026-07-13T04:03:32.184864,15.30594065,.0000403,97.3894,275.8925,132.9941,227.1334,0,U,62658,999,13742,.19819E-3,.5785E-4,0
FLOCK 4G-4,2025-009BC,2026-07-12T18:39:23.772672,15.32041929,.0004445,97.3953,275.0147,199.7728,160.3342,0,U,62659,999,14042,.91889E-3,.2843E-3,0
FLOCK 4G-6,2025-009BD,2026-07-12T18:58:39.129888,15.29952265,.0002665,97.3947,275.0759,210.8225,149.2859,0,U,62660,999,14041,.24233E-3,.6951E-4,0
FLOCK 4G-2,2025-009BE,2026-07-12T18:50:13.485984,15.30300301,.0003486,97.4014,275.7085,211.5166,148.5867,0,U,62661,999,14044,.26791E-3,.7777E-4,0
FLOCK 4G-5,2025-009BG,2026-07-12T18:44:12.765984,15.30881733,.0003232,97.4030,276.1016,189.2168,170.9014,0,U,62663,999,8285,.21985E-3,.6484E-4,0
LYRA-1,2025-009BH,2026-07-13T03:42:12.197376,15.19308302,.0010375,97.3980,268.1992,104.1680,256.0708,0,U,62664,999,8236,.31609E-3,.6616E-4,0
JAY-D2,2025-009BJ,2026-07-13T03:28:55.799328,15.22513369,.0003,97.3887,272.1970,221.6572,138.4437,0,U,62665,999,8268,.95309E-4,.2139E-4,0
FLOCK 4G-1,2025-009BK,2026-07-13T03:53:09.591648,15.30163691,.0003815,97.4027,276.0632,206.1570,153.9479,0,U,62666,999,8288,.22828E-3,.6587E-4,0
FLOCK 4G-14,2025-009BL,2026-07-12T17:37:42.733632,15.29703778,.0003909,97.4030,275.4355,202.9881,157.1185,0,U,62667,999,8280,.22999E-3,.6543E-4,0
