FLOCK 4G-28             
1 62634U 25009AB  26193.67457277  .00005586  00000+0  16558-3 0  9994
2 62634  97.4030 278.3258 0001880 167.8729 192.2559 15.35253890 82990
GARAI-A                 
1 62635U 25009AC  26194.18826544  .00003089  00000+0  15188-3 0  9993
2 62635  97.3973 273.4098 0001828 197.1556 162.9617 15.18764359 82728
FLOCK 4G-24             
1 62637U 25009AE  26194.16988788  .00006145  00000+0  21199-3 0  9997
2 62637  97.4028 276.3584 0003514 170.9451 189.1854 15.30341889 82908
FLOCK 4G-3              
1 62639U 25009AG  26194.16241929  .00006502  00000+0  22759-3 0  9998
2 62639  97.4028 276.0604 0003027 175.5584 184.5684 15.29846759 82877
NUSAT-45 (UZMASAT-1)    
1 62640U 25009AH  26194.15134391  .00005838  00000+0  20142-3 0  9998
2 62640  97.3596 275.1181 0001637 183.9331 176.1898 15.30361115 82892
FLOCK 4G-27             
1 62641U 25009AJ  26193.20074251  .00005399  00000+0  18990-3 0  9992
2 62641  97.3939 274.4544 0002239 177.4853 182.6399 15.29769551 82729
FLOCK 4G-29             
1 62642U 25009AK  26194.16732831  .00005485  00000+0  19246-3 0  9995
2 62642  97.4025 276.0254 0003223 171.9398 188.1894 15.29839451 82874
ANSER LEADER-S          
1 62644U 25009AM  26193.83351838  .00079980  00000+0  14142-2 0  9994
2 62644  97.4010 281.1010 0003986 197.8156 162.2956 15.50039499 83176
FLOCK 4G-22             
1 62645U 25009AN  26194.12025567  .00006845  00000+0  24016-3 0  9997
2 62645  97.4013 276.0132 0002728 166.5553 193.5760 15.29746788 82884
FLOCK 4G-25             
1 62646U 25009AP  26194.15972365  .00007836  00000+0  27254-3 0  9996
2 62646  97.4018 276.1302 0002253 166.6771 193.4529 15.29985367 82897
FLOCK 4G-23             
1 62647U 25009AQ  26193.75046595  .00034117  00000+0  10152-2 0  9999
2 62647  97.3926 275.4335 0003094 177.8892 182.2364 15.34642772 82849
LIME                    
1 62648U 25009AR  26194.16939730  .00006689  00000+0  22312-3 0  9993
2 62648  97.3959 276.3738 0000901 184.8810 175.2423 15.31402538 82945
AE1C                    
1 62649U 25009AS  26193.93924375  .00024912  00000+0  49085-3 0  9992
2 62649  97.4031 282.0753 0002460 180.8761 179.2485 15.47206942 83268
FLOCK 4G-34             
1 62650U 25009AT  26194.16381815  .00006603  00000+0  23174-3 0  9994
2 62650  97.3967 275.6233 0002177 167.8874 192.2419 15.29751359 82889
FLOCK 4G-21             
1 62651U 25009AU  26193.76056942  .00028833  00000+0  91122-3 0  9997
2 62651  97.3994 276.2129 0002952 197.3434 162.7708 15.32763589 82876
FLOCK 4G-31             
1 62652U 25009AV  26193.67009628  .00006291  00000+0  22232-3 0  9997
2 62652  97.3971 275.1044 0001649 162.3844 197.7453 15.29548421 82805
PAUSAT-1                
1 62653U 25009AW  26194.18481536  .00002205  00000+0  94654-4 0  9996
2 62653  97.3954 273.4644 0001255 158.8563 201.2726 15.23754322 82745
BRO-16                  
1 62654U 25009AX  26193.68529630  .00002233  00000+0  94809-4 0  9992
2 62654  97.4059 273.8571 0001901 158.7568 201.3749 15.24117857 82684
TRANSPORTER-12 OBJECT AY
1 62655U 25009AY  26193.78829933  .00020911  00000+0  48121-3 0  9991
2 62655  97.4039 280.5948 0002611 156.4135 203.7233 15.42659612 83146
TRANSPORTER-12 OBJECT AZ
1 62656U 25009AZ  26193.72104828  .00008360  00000+0  25960-3 0  9995
2 62656  97.3946 276.8157 0001134 163.3805 196.7475 15.33621549 82936
TRANSPORTER-12 OBJECT BA
1 62657U 25009BA  26193.75164078  .00005770  00000+0  20506-3 0  9995
2 62657  97.3949 275.3133 0002405 148.2179 211.9207 15.29399610 82834
TROLL                   
1 62658U 25009BB  26194.16912251  .00005785  00000+0  19819-3 0  9997
2 62658  97.3894 275.8925 0000403 132.9941 227.1334 15.30594065137420
FLOCK 4G-4              
1 62659U 25009BC  26193.77735848  .00028430  00000+0  91889-3 0  9998
2 62659  97.3953 275.0147 0004445 199.7728 160.3342 15.32041929140428
FLOCK 4G-6              
1 62660U 25009BD  26193.79073067  .00006951  00000+0  24233-3 0  9993
2 62660  97.3947 275.0759 0002665 210.8225 149.2859 15.29952265140419
FLOCK 4G-2              
1 62661U 25009BE  26193.78487831  .00007777  00000+0  26791-3 0  9999
2 62661  97.4014 275.7085 0003486 211.5166 148.5867 15.30300301140443
FLOCK 4G-5              
1 62663U 25009BG  26193.78070331  .00006484  00000+0  21985-3 0  9998
2 62663  97.4030 276.1016 0003232 189.2168 170.9014 15.30881733 82850
LYRA-1                  
1 62664U 25009BH  26194.15430784  .00006616  00000+0  31609-3 0  9994
2 62664  97.3980 268.1992 0010375 104.1680 256.0708 15.19308302 82364
JAY-D2                  
1 62665U 25009BJ  26194.14509027  .00002139  00000+0  95309-4 0  9995
2 62665  97.3887 272.1970 0003000 221.6572 138.4437 15.22513369 82686
FLOCK 4G-1              
1 62666U 25009BK  26194.16191657  .00006587  00000+0  22828-3 0  9990
2 62666  97.4027 276.0632 0003815 206.1570 153.9479 15.30163691 82880
FLOCK 4G-14             
1 62667U 25009BL  26193.73452238  .00006543  00000+0  22999-3 0  9999
2 62667  97.4030 275.4355 0003909 202.9881 157.1185 15.29703778 82809
